2025-313AE              
1 67276U 25313AE  26019.26784665  .00008070  00000+0  37358-3 0  9997
2 67276  97.4082  96.3562 0014839 164.4626 195.7068 15.20282315  3306
2025-313AF              
1 67277U 25313AF  26019.26816460  .00007501  00000+0  34790-3 0  9992
2 67277  97.4083  96.3565 0014829 164.3523 195.8174 15.20243214  3309
2025-313AG              
1 67278U 25313AG  26019.26795408  .00007313  00000+0  33907-3 0  9991
2 67278  97.4087  96.3576 0014786 164.1926 195.9774 15.20260989  3319
GALAPAGOS-UTE-SWSU      
1 67279U 25313AH  26019.26713113  .00008534  00000+0  39406-3 0  9991
2 67279  97.4097  96.3616 0015345 161.3036 198.8766 15.20344112  3302
2025-313AJ              
1 67280U 25313AJ  26019.26244082  .00006253  00000+0  28749-3 0  9991
2 67280  97.4167  96.3752 0014273 158.0985 202.0864 15.20622132  3306
2025-313AK              
1 67281U 25313AK  26019.26114699  .00006148  00000+0  28206-3 0  9993
2 67281  97.4051  96.3546 0012996 156.9323 203.2498 15.20714010  3306
2025-313AL              
1 67282U 25313AL  26019.25591160  .00006414  00000+0  29100-3 0  9995
2 67282  97.4100  96.3634 0011768 155.9259 204.2530 15.21094328  3305
HORS 5                  
1 67283U 25313AM  26019.25471269  .00009570  00000+0  43058-3 0  9997
2 67283  97.4107  96.3676 0011630 155.8096 204.3689 15.21248532  3309
LOBACHEVSKY (RS83S)     
1 67284U 25313AN  26019.25618867  .00004092  00000+0  18721-3 0  9998
2 67284  97.4092  96.3608 0011658 155.8236 204.3549 15.21025402  3308
NASBSAT-2               
1 67285U 25313AP  26019.25375453  .00009114  00000+0  40960-3 0  9990
2 67285  97.4085  96.3616 0011256 157.1661 203.0078 15.21304115  3305
2025-313AQ              
1 67286U 25313AQ  26019.25320682  .00010230  00000+0  45948-3 0  9997
2 67286  97.4106  96.3770 0010955 152.1977 207.9846 15.21296633  3302
LUCA (RS90S)            
1 67287U 25313AR  26019.18650215  .00009582  00000+0  42896-3 0  9995
2 67287  97.4106  96.3140 0010844 154.2006 205.9773 15.21429201  3291
