CCSDS_OMM_VERS = 2.0
CREATION_DATE  = 
ORIGINATOR     = 

OBJECT_NAME    = 2025-313AE
OBJECT_ID      = 2025-313AE
CENTER_NAME    = EARTH
REF_FRAME      = TEME
TIME_SYSTEM    = UTC
MEAN_ELEMENT_THEORY = SGP/SGP4

EPOCH          = 2026-01-19T06:25:41.950560
MEAN_MOTION    = 15.20282315
ECCENTRICITY   = .00148395
INCLINATION    = 97.4082
RA_OF_ASC_NODE = 96.3562
ARG_OF_PERICENTER = 164.4626
MEAN_ANOMALY   = 195.7068

EPHEMERIS_TYPE = 0
CLASSIFICATION_TYPE = U
NORAD_CAT_ID   = 67276
ELEMENT_SET_NO = 999
REV_AT_EPOCH   = 330
BSTAR          = .37358131E-3
MEAN_MOTION_DOT = .807E-4
MEAN_MOTION_DDOT = 0

CCSDS_OMM_VERS = 2.0
CREATION_DATE  = 
ORIGINATOR     = 

OBJECT_NAME    = 2025-313AF
OBJECT_ID      = 2025-313AF
CENTER_NAME    = EARTH
REF_FRAME      = TEME
TIME_SYSTEM    = UTC
MEAN_ELEMENT_THEORY = SGP/SGP4

EPOCH          = 2026-01-19T06:26:09.421440
MEAN_MOTION    = 15.20243214
ECCENTRICITY   = .00148292
INCLINATION    = 97.4083
RA_OF_ASC_NODE = 96.3565
ARG_OF_PERICENTER = 164.3523
MEAN_ANOMALY   = 195.8174

EPHEMERIS_TYPE = 0
CLASSIFICATION_TYPE = U
NORAD_CAT_ID   = 67277
ELEMENT_SET_NO = 999
REV_AT_EPOCH   = 330
BSTAR          = .34790342E-3
MEAN_MOTION_DOT = .7501E-4
MEAN_MOTION_DDOT = 0

CCSDS_OMM_VERS = 2.0
CREATION_DATE  = 
ORIGINATOR     = 

OBJECT_NAME    = 2025-313AG
OBJECT_ID      = 2025-313AG
CENTER_NAME    = EARTH
REF_FRAME      = TEME
TIME_SYSTEM    = UTC
MEAN_ELEMENT_THEORY = SGP/SGP4

EPOCH          = 2026-01-19T06:25:51.232512
MEAN_MOTION    = 15.20260989
ECCENTRICITY   = .00147861
INCLINATION    = 97.4087
RA_OF_ASC_NODE = 96.3576
ARG_OF_PERICENTER = 164.1926
MEAN_ANOMALY   = 195.9774

EPHEMERIS_TYPE = 0
CLASSIFICATION_TYPE = U
NORAD_CAT_ID   = 67278
ELEMENT_SET_NO = 999
REV_AT_EPOCH   = 331
BSTAR          = .33906768E-3
MEAN_MOTION_DOT = .7313E-4
MEAN_MOTION_DDOT = 0

CCSDS_OMM_VERS = 2.0
CREATION_DATE  = 
ORIGINATOR     = 

OBJECT_NAME    = GALAPAGOS-UTE-SWSU
OBJECT_ID      = 2025-313AH
CENTER_NAME    = EARTH
REF_FRAME      = TEME
TIME_SYSTEM    = UTC
MEAN_ELEMENT_THEORY = SGP/SGP4

EPOCH          = 2026-01-19T06:24:40.129632
MEAN_MOTION    = 15.20344112
ECCENTRICITY   = .00153459
INCLINATION    = 97.4097
RA_OF_ASC_NODE = 96.3616
ARG_OF_PERICENTER = 161.3036
MEAN_ANOMALY   = 198.8766

EPHEMERIS_TYPE = 0
CLASSIFICATION_TYPE = U
NORAD_CAT_ID   = 67279
ELEMENT_SET_NO = 999
REV_AT_EPOCH   = 330
BSTAR          = .39406113E-3
MEAN_MOTION_DOT = .8534E-4
MEAN_MOTION_DDOT = 0

CCSDS_OMM_VERS = 2.0
CREATION_DATE  = 
ORIGINATOR     = 

OBJECT_NAME    = 2025-313AJ
OBJECT_ID      = 2025-313AJ
CENTER_NAME    = EARTH
REF_FRAME      = TEME
TIME_SYSTEM    = UTC
MEAN_ELEMENT_THEORY = SGP/SGP4

EPOCH          = 2026-01-19T06:17:54.886848
MEAN_MOTION    = 15.20622132
ECCENTRICITY   = .00142738
INCLINATION    = 97.4167
RA_OF_ASC_NODE = 96.3752
ARG_OF_PERICENTER = 158.0985
MEAN_ANOMALY   = 202.0864

EPHEMERIS_TYPE = 0
CLASSIFICATION_TYPE = U
NORAD_CAT_ID   = 67280
ELEMENT_SET_NO = 999
REV_AT_EPOCH   = 330
BSTAR          = .28748971E-3
MEAN_MOTION_DOT = .6253E-4
MEAN_MOTION_DDOT = 0

CCSDS_OMM_VERS = 2.0
CREATION_DATE  = 
ORIGINATOR     = 

OBJECT_NAME    = 2025-313AK
OBJECT_ID      = 2025-313AK
CENTER_NAME    = EARTH
REF_FRAME      = TEME
TIME_SYSTEM    = UTC
MEAN_ELEMENT_THEORY = SGP/SGP4

EPOCH          = 2026-01-19T06:16:03.099936
MEAN_MOTION    = 15.20714010
ECCENTRICITY   = .00129961
INCLINATION    = 97.4051
RA_OF_ASC_NODE = 96.3546
ARG_OF_PERICENTER = 156.9323
MEAN_ANOMALY   = 203.2498

EPHEMERIS_TYPE = 0
CLASSIFICATION_TYPE = U
NORAD_CAT_ID   = 67281
ELEMENT_SET_NO = 999
REV_AT_EPOCH   = 330
BSTAR          = .28206326E-3
MEAN_MOTION_DOT = .6148E-4
MEAN_MOTION_DDOT = 0

CCSDS_OMM_VERS = 2.0
CREATION_DATE  = 
ORIGINATOR     = 

OBJECT_NAME    = 2025-313AL
OBJECT_ID      = 2025-313AL
CENTER_NAME    = EARTH
REF_FRAME      = TEME
TIME_SYSTEM    = UTC
MEAN_ELEMENT_THEORY = SGP/SGP4

EPOCH          = 2026-01-19T06:08:30.762240
MEAN_MOTION    = 15.21094328
ECCENTRICITY   = .00117687
INCLINATION    = 97.4100
RA_OF_ASC_NODE = 96.3634
ARG_OF_PERICENTER = 155.9259
MEAN_ANOMALY   = 204.2530

EPHEMERIS_TYPE = 0
CLASSIFICATION_TYPE = U
NORAD_CAT_ID   = 67282
ELEMENT_SET_NO = 999
REV_AT_EPOCH   = 330
BSTAR          = .29100494E-3
MEAN_MOTION_DOT = .6414E-4
MEAN_MOTION_DDOT = 0

CCSDS_OMM_VERS = 2.0
CREATION_DATE  = 
ORIGINATOR     = 

OBJECT_NAME    = HORS 5
OBJECT_ID      = 2025-313AM
CENTER_NAME    = EARTH
REF_FRAME      = TEME
TIME_SYSTEM    = UTC
MEAN_ELEMENT_THEORY = SGP/SGP4

EPOCH          = 2026-01-19T06:06:47.176416
MEAN_MOTION    = 15.21248532
ECCENTRICITY   = .00116301
INCLINATION    = 97.4107
RA_OF_ASC_NODE = 96.3676
ARG_OF_PERICENTER = 155.8096
MEAN_ANOMALY   = 204.3689

EPHEMERIS_TYPE = 0
CLASSIFICATION_TYPE = U
NORAD_CAT_ID   = 67283
ELEMENT_SET_NO = 999
REV_AT_EPOCH   = 330
BSTAR          = .43057548E-3
MEAN_MOTION_DOT = .957E-4
MEAN_MOTION_DDOT = 0

CCSDS_OMM_VERS = 2.0
CREATION_DATE  = 
ORIGINATOR     = 

OBJECT_NAME    = LOBACHEVSKY (RS83S)
OBJECT_ID      = 2025-313AN
CENTER_NAME    = EARTH
REF_FRAME      = TEME
TIME_SYSTEM    = UTC
MEAN_ELEMENT_THEORY = SGP/SGP4

EPOCH          = 2026-01-19T06:08:54.701088
MEAN_MOTION    = 15.21025402
ECCENTRICITY   = .00116585
INCLINATION    = 97.4092
RA_OF_ASC_NODE = 96.3608
ARG_OF_PERICENTER = 155.8236
MEAN_ANOMALY   = 204.3549

EPHEMERIS_TYPE = 0
CLASSIFICATION_TYPE = U
NORAD_CAT_ID   = 67284
ELEMENT_SET_NO = 999
REV_AT_EPOCH   = 330
BSTAR          = .18720623E-3
MEAN_MOTION_DOT = .4092E-4
MEAN_MOTION_DDOT = 0

CCSDS_OMM_VERS = 2.0
CREATION_DATE  = 
ORIGINATOR     = 

OBJECT_NAME    = NASBSAT-2
OBJECT_ID      = 2025-313AP
CENTER_NAME    = EARTH
REF_FRAME      = TEME
TIME_SYSTEM    = UTC
MEAN_ELEMENT_THEORY = SGP/SGP4

EPOCH          = 2026-01-19T06:05:24.391392
MEAN_MOTION    = 15.21304115
ECCENTRICITY   = .00112561
INCLINATION    = 97.4085
RA_OF_ASC_NODE = 96.3616
ARG_OF_PERICENTER = 157.1661
MEAN_ANOMALY   = 203.0078

EPHEMERIS_TYPE = 0
CLASSIFICATION_TYPE = U
NORAD_CAT_ID   = 67285
ELEMENT_SET_NO = 999
REV_AT_EPOCH   = 330
BSTAR          = .40960304E-3
MEAN_MOTION_DOT = .9114E-4
MEAN_MOTION_DDOT = 0

CCSDS_OMM_VERS = 2.0
CREATION_DATE  = 
ORIGINATOR     = 

OBJECT_NAME    = 2025-313AQ
OBJECT_ID      = 2025-313AQ
CENTER_NAME    = EARTH
REF_FRAME      = TEME
TIME_SYSTEM    = UTC
MEAN_ELEMENT_THEORY = SGP/SGP4

EPOCH          = 2026-01-19T06:04:37.069248
MEAN_MOTION    = 15.21296633
ECCENTRICITY   = .00109553
INCLINATION    = 97.4106
RA_OF_ASC_NODE = 96.3770
ARG_OF_PERICENTER = 152.1977
MEAN_ANOMALY   = 207.9846

EPHEMERIS_TYPE = 0
CLASSIFICATION_TYPE = U
NORAD_CAT_ID   = 67286
ELEMENT_SET_NO = 999
REV_AT_EPOCH   = 330
BSTAR          = .45947918E-3
MEAN_MOTION_DOT = .1023E-3
MEAN_MOTION_DDOT = 0

CCSDS_OMM_VERS = 2.0
CREATION_DATE  = 
ORIGINATOR     = 

OBJECT_NAME    = LUCA (RS90S)
OBJECT_ID      = 2025-313AR
CENTER_NAME    = EARTH
REF_FRAME      = TEME
TIME_SYSTEM    = UTC
MEAN_ELEMENT_THEORY = SGP/SGP4

EPOCH          = 2026-01-19T04:28:33.785760
MEAN_MOTION    = 15.21429201
ECCENTRICITY   = .00108448
INCLINATION    = 97.4106
RA_OF_ASC_NODE = 96.3140
ARG_OF_PERICENTER = 154.2006
MEAN_ANOMALY   = 205.9773

EPHEMERIS_TYPE = 0
CLASSIFICATION_TYPE = U
NORAD_CAT_ID   = 67287
ELEMENT_SET_NO = 999
REV_AT_EPOCH   = 329
BSTAR          = .42895947E-3
MEAN_MOTION_DOT = .9582E-4
MEAN_MOTION_DDOT = 0

